STARLINK-31050          
1 58546U 23192R   26068.37415184 -.00001874  00000+0 -51192-4 0  9993
2 58546  53.1604  64.4434 0001367 103.7803 256.3350 15.30181401125931
TEVEL2-4                
1 63213U 25052D   26068.69417973  .00020990  00000+0  70363-3 0  9998
2 63213  97.4009 325.1237 0004733  95.3468 264.8313 15.30925813 54879
